start=new Date('2023-03-30T00:00:00.000Z').valueOf();
sats=[{"REV_AT_EPOCH":"11920","OBJECT_NAME":"STARLINK-1993","ARG_OF_PERICENTER":"54.9849","REF_FRAME":"TEME","SEMIMAJOR_AXIS":"6925.349","APOAPSIS":"547.875","LAUNCH_DATE":"2021-02-04","OBJECT_TYPE":"PAYLOAD","ELEMENT_SET_NO":"999","MEAN_MOTION_DDOT":"0.0000000000000","ECCENTRICITY":"0.00009540","RA_OF_ASC_NODE":"172.7484","MEAN_ELEMENT_THEORY":"SGP4","OBJECT_ID":"2021-009AS","FILE":"3874393","RCS_SIZE":"LARGE","MEAN_ANOMALY":"305.1229","CENTER_NAME":"EARTH","DECAY_DATE":null,"COUNTRY_CODE":"US","CLASSIFICATION_TYPE":"U","EPOCH":"2023-03-29T12:23:21.286176","TIME_SYSTEM":"UTC","TLE_LINE2":"2 47588  53.0533 172.7484 0000954  54.9849 305.1229 15.06399710119209","GP_ID":"229080841","BSTAR":"0.00072656000000","MEAN_MOTION_DOT":"0.00010557","NORAD_CAT_ID":"47588","MEAN_MOTION":"15.06399710","EPHEMERIS_TYPE":"0","INCLINATION":"53.0533","PERIAPSIS":"546.554","SITE":"AFETR","TLE_LINE1":"1 47588U 21009AS  23088.51621859  .00010557  00000-0  72656-3 0  9999","PERIOD":"95.592"},{"EPOCH":"2023-03-29T16:00:54.968832","TIME_SYSTEM":"UTC","NORAD_CAT_ID":"47589","GP_ID":"229137422","TLE_LINE2":"2 47589  53.0522 172.0669 0001333  94.2317 265.8824 15.06446961118613","BSTAR":"-0.00000849970000","MEAN_MOTION_DOT":"-0.00000408","CLASSIFICATION_TYPE":"U","TLE_LINE1":"1 47589U 21009AT  23088.66730288 -.00000408  00000-0 -84997-5 0  9992","PERIOD":"95.589","INCLINATION":"53.0522","PERIAPSIS":"546.147","MEAN_MOTION":"15.06446961","EPHEMERIS_TYPE":"0","SITE":"AFETR","OBJECT_TYPE":"PAYLOAD","ELEMENT_SET_NO":"999","APOAPSIS":"547.993","LAUNCH_DATE":"2021-02-04","MEAN_MOTION_DDOT":"0.0000000000000","OBJECT_NAME":"STARLINK-1994","REV_AT_EPOCH":"11861","SEMIMAJOR_AXIS":"6925.205","ARG_OF_PERICENTER":"94.2317","REF_FRAME":"TEME","CENTER_NAME":"EARTH","MEAN_ANOMALY":"265.8824","COUNTRY_CODE":"US","DECAY_DATE":null,"ECCENTRICITY":"0.00013330","FILE":"3874790","RCS_SIZE":"LARGE","RA_OF_ASC_NODE":"172.0669","MEAN_ELEMENT_THEORY":"SGP4","OBJECT_ID":"2021-009AT"},{"ECCENTRICITY":"0.00011070","MEAN_ELEMENT_THEORY":"SGP4","RA_OF_ASC_NODE":"192.4103","OBJECT_ID":"2021-009AU","RCS_SIZE":"LARGE","FILE":"3874790","MEAN_ANOMALY":"259.1515","CENTER_NAME":"EARTH","DECAY_DATE":null,"COUNTRY_CODE":"US","REV_AT_EPOCH":"11832","OBJECT_NAME":"STARLINK-1995","ARG_OF_PERICENTER":"100.9598","REF_FRAME":"TEME","SEMIMAJOR_AXIS":"6925.294","LAUNCH_DATE":"2021-02-04","APOAPSIS":"547.926","ELEMENT_SET_NO":"999","OBJECT_TYPE":"PAYLOAD","MEAN_MOTION_DDOT":"0.0000000000000","EPHEMERIS_TYPE":"0","MEAN_MOTION":"15.06417785","PERIAPSIS":"546.392","INCLINATION":"53.0519","SITE":"AFETR","TLE_LINE1":"1 47590U 21009AU  23088.59175746  .00037356  00000-0  25123-2 0  9991","PERIOD":"95.591","CLASSIFICATION_TYPE":"U","TIME_SYSTEM":"UTC","EPOCH":"2023-03-29T14:12:07.844544","TLE_LINE2":"2 47590  53.0519 192.4103 0001107 100.9598 259.1515 15.06417785118328","BSTAR":"0.00251230000000","GP_ID":"229138167","MEAN_MOTION_DOT":"0.00037356","NORAD_CAT_ID":"47590"},{"EPHEMERIS_TYPE":"0","MEAN_MOTION":"15.06423473","PERIAPSIS":"545.989","INCLINATION":"53.0537","SITE":"AFETR","TLE_LINE1":"1 47591U 21009AV  23088.66363621  .00026378  00000-0  17820-2 0  9998","PERIOD":"95.591","CLASSIFICATION_TYPE":"U","TIME_SYSTEM":"UTC","EPOCH":"2023-03-29T15:55:38.168544","TLE_LINE2":"2 47591  53.0537 172.0900 0001665  91.9736 268.1443 15.06423473118613","MEAN_MOTION_DOT":"0.00026378","GP_ID":"229136421","BSTAR":"0.00178200000000","NORAD_CAT_ID":"47591","ECCENTRICITY":"0.00016650","MEAN_ELEMENT_THEORY":"SGP4","RA_OF_ASC_NODE":"172.0900","OBJECT_ID":"2021-009AV","RCS_SIZE":"LARGE","FILE":"3874790","MEAN_ANOMALY":"268.1443","CENTER_NAME":"EARTH","DECAY_DATE":null,"COUNTRY_CODE":"US","OBJECT_NAME":"STARLINK-1996","REV_AT_EPOCH":"11861","REF_FRAME":"TEME","ARG_OF_PERICENTER":"91.9736","SEMIMAJOR_AXIS":"6925.277","LAUNCH_DATE":"2021-02-04","APOAPSIS":"548.295","ELEMENT_SET_NO":"999","OBJECT_TYPE":"PAYLOAD","MEAN_MOTION_DDOT":"0.0000000000000"},{"DECAY_DATE":null,"COUNTRY_CODE":"US","MEAN_ANOMALY":"238.4157","CENTER_NAME":"EARTH","RA_OF_ASC_NODE":"191.6456","OBJECT_ID":"2021-009AW","MEAN_ELEMENT_THEORY":"SGP4","RCS_SIZE":"LARGE","FILE":"3874790","ECCENTRICITY":"0.00009950","MEAN_MOTION_DDOT":"0.0000000000000","APOAPSIS":"547.839","LAUNCH_DATE":"2021-02-04","ELEMENT_SET_NO":"999","OBJECT_TYPE":"PAYLOAD","ARG_OF_PERICENTER":"121.6929","REF_FRAME":"TEME","SEMIMAJOR_AXIS":"6925.285","REV_AT_EPOCH":"11834","OBJECT_NAME":"STARLINK-1997","PERIOD":"95.591","TLE_LINE1":"1 47592U 21009AW  23088.76130747  .00036865  00000-0  24795-2 0  9992","SITE":"AFETR","EPHEMERIS_TYPE":"0","MEAN_MOTION":"15.06420872","PERIAPSIS":"546.461","INCLINATION":"53.0540","MEAN_MOTION_DOT":"0.00036865","TLE_LINE2":"2 47592  53.0540 191.6456 0000995 121.6929 238.4157 15.06420872118343","GP_ID":"229137170","BSTAR":"0.00247950000000","NORAD_CAT_ID":"47592","TIME_SYSTEM":"UTC","EPOCH":"2023-03-29T18:16:16.965408","CLASSIFICATION_TYPE":"U"},{"REF_FRAME":"TEME","ARG_OF_PERICENTER":"108.3241","SEMIMAJOR_AXIS":"6925.441","REV_AT_EPOCH":"11832","OBJECT_NAME":"STARLINK-1998","MEAN_MOTION_DDOT":"0.0000000000000","APOAPSIS":"548.310","LAUNCH_DATE":"2021-02-04","OBJECT_TYPE":"PAYLOAD","ELEMENT_SET_NO":"999","RA_OF_ASC_NODE":"192.3769","MEAN_ELEMENT_THEORY":"SGP4","OBJECT_ID":"2021-009AX","FILE":"3874790","RCS_SIZE":"LARGE","ECCENTRICITY":"0.00014500","DECAY_DATE":null,"COUNTRY_CODE":"US","MEAN_ANOMALY":"251.7906","CENTER_NAME":"EARTH","CLASSIFICATION_TYPE":"U","GP_ID":"229137922","TLE_LINE2":"2 47593  53.0543 192.3769 0001450 108.3241 251.7906 15.06369925118327","MEAN_MOTION_DOT":"0.00029127","BSTAR":"0.00196780000000","NORAD_CAT_ID":"47593","EPOCH":"2023-03-29T14:22:46.063200","TIME_SYSTEM":"UTC","SITE":"AFETR","MEAN_MOTION":"15.06369925","EPHEMERIS_TYPE":"0","INCLINATION":"53.0543","PERIAPSIS":"546.302","PERIOD":"95.594","TLE_LINE1":"1 47593U 21009AX  23088.59914425  .00029127  00000-0  19678-2 0  9994"},{"MEAN_ELEMENT_THEORY":"SGP4","RA_OF_ASC_NODE":"191.6285","OBJECT_ID":"2021-009AY","FILE":"3874790","RCS_SIZE":"LARGE","ECCENTRICITY":"0.00012360","DECAY_DATE":null,"COUNTRY_CODE":"US","MEAN_ANOMALY":"286.7998","CENTER_NAME":"EARTH","ARG_OF_PERICENTER":"73.3126","REF_FRAME":"TEME","SEMIMAJOR_AXIS":"6925.427","OBJECT_NAME":"STARLINK-1999","REV_AT_EPOCH":"11834","MEAN_MOTION_DDOT":"0.0000000000000","LAUNCH_DATE":"2021-02-04","APOAPSIS":"548.148","OBJECT_TYPE":"PAYLOAD","ELEMENT_SET_NO":"999","SITE":"AFETR","MEAN_MOTION":"15.06374435","EPHEMERIS_TYPE":"0","INCLINATION":"53.0539","PERIAPSIS":"546.436","PERIOD":"95.594","TLE_LINE1":"1 47594U 21009AY  23088.76500780  .00054309  00000-0  36394-2 0  9993","CLASSIFICATION_TYPE":"U","TLE_LINE2":"2 47594  53.0539 191.6285 0001236  73.3126 286.7998 15.06374435118346","GP_ID":"229137668","MEAN_MOTION_DOT":"0.00054309","BSTAR":"0.00363940000000","NORAD_CAT_ID":"47594","EPOCH":"2023-03-29T18:21:36.673920","TIME_SYSTEM":"UTC"},{"TIME_SYSTEM":"UTC","EPOCH":"2023-03-29T18:00:23.962176","NORAD_CAT_ID":"47595","TLE_LINE2":"2 47595  53.0529 191.6997 0002910  67.5223 292.6073 15.06410337118341","GP_ID":"229136921","BSTAR":"0.00319040000000","MEAN_MOTION_DOT":"0.00047577","CLASSIFICATION_TYPE":"U","TLE_LINE1":"1 47595U 21009AZ  23088.75027734  .00047577  00000-0  31904-2 0  9997","PERIOD":"95.591","PERIAPSIS":"545.167","INCLINATION":"53.0529","EPHEMERIS_TYPE":"0","MEAN_MOTION":"15.06410337","SITE":"AFETR","ELEMENT_SET_NO":"999","OBJECT_TYPE":"PAYLOAD","LAUNCH_DATE":"2021-02-04","APOAPSIS":"549.197","MEAN_MOTION_DDOT":"0.0000000000000","OBJECT_NAME":"STARLINK-2000","REV_AT_EPOCH":"11834","SEMIMAJOR_AXIS":"6925.317","ARG_OF_PERICENTER":"67.5223","REF_FRAME":"TEME","CENTER_NAME":"EARTH","MEAN_ANOMALY":"292.6073","COUNTRY_CODE":"US","DECAY_DATE":null,"ECCENTRICITY":"0.00029100","RCS_SIZE":"LARGE","FILE":"3874790","OBJECT_ID":"2021-009AZ","RA_OF_ASC_NODE":"191.6997","MEAN_ELEMENT_THEORY":"SGP4"},{"CLASSIFICATION_TYPE":"U","EPOCH":"2023-03-29T18:05:39.984864","TIME_SYSTEM":"UTC","GP_ID":"229136671","TLE_LINE2":"2 47596  53.0520 191.6812 0001594 104.6439 255.4726 15.06418108118344","BSTAR":"0.00300780000000","MEAN_MOTION_DOT":"0.00044828","NORAD_CAT_ID":"47596","MEAN_MOTION":"15.06418108","EPHEMERIS_TYPE":"0","INCLINATION":"53.0520","PERIAPSIS":"546.054","SITE":"AFETR","TLE_LINE1":"1 47596U 21009BA  23088.75393501  .00044828  00000-0  30078-2 0  9993","PERIOD":"95.591","REV_AT_EPOCH":"11834","OBJECT_NAME":"STARLINK-2001","ARG_OF_PERICENTER":"104.6439","REF_FRAME":"TEME","SEMIMAJOR_AXIS":"6925.293","LAUNCH_DATE":"2021-02-04","APOAPSIS":"548.262","OBJECT_TYPE":"PAYLOAD","ELEMENT_SET_NO":"999","MEAN_MOTION_DDOT":"0.0000000000000","ECCENTRICITY":"0.00015940","MEAN_ELEMENT_THEORY":"SGP4","RA_OF_ASC_NODE":"191.6812","OBJECT_ID":"2021-009BA","FILE":"3874790","RCS_SIZE":"LARGE","MEAN_ANOMALY":"255.4726","CENTER_NAME":"EARTH","DECAY_DATE":null,"COUNTRY_CODE":"US"},{"EPOCH":"2023-03-29T17:55:04.581984","TIME_SYSTEM":"UTC","NORAD_CAT_ID":"47597","TLE_LINE2":"2 47597  53.0509 191.7142 0001341  99.9823 260.1317 15.06412423118345","GP_ID":"229137423","MEAN_MOTION_DOT":"0.00059531","BSTAR":"0.00398050000000","CLASSIFICATION_TYPE":"U","TLE_LINE1":"1 47597U 21009BB  23088.74658081  .00059531  00000-0  39805-2 0  9994","PERIOD":"95.591","INCLINATION":"53.0509","PERIAPSIS":"546.247","MEAN_MOTION":"15.06412423","EPHEMERIS_TYPE":"0","SITE":"AFETR","OBJECT_TYPE":"PAYLOAD","ELEMENT_SET_NO":"999","APOAPSIS":"548.104","LAUNCH_DATE":"2021-02-04","MEAN_MOTION_DDOT":"0.0000000000000","OBJECT_NAME":"STARLINK-2002","REV_AT_EPOCH":"11834","SEMIMAJOR_AXIS":"6925.310","ARG_OF_PERICENTER":"99.9823","REF_FRAME":"TEME","CENTER_NAME":"EARTH","MEAN_ANOMALY":"260.1317","COUNTRY_CODE":"US","DECAY_DATE":null,"ECCENTRICITY":"0.00013410","FILE":"3874790","RCS_SIZE":"LARGE","MEAN_ELEMENT_THEORY":"SGP4","RA_OF_ASC_NODE":"191.7142","OBJECT_ID":"2021-009BB"}];
